{
  "links" : {
    "next" : "https://api.nasa.gov/neo/rest/v1/neo/browse?page=12&size=20&api_key=jqAGvNAwUIBu4fl9FSOjdm3V4F7hIglRzI6pdX9d",
    "prev" : "https://api.nasa.gov/neo/rest/v1/neo/browse?page=10&size=20&api_key=jqAGvNAwUIBu4fl9FSOjdm3V4F7hIglRzI6pdX9d",
    "self" : "https://api.nasa.gov/neo/rest/v1/neo/browse?page=11&size=20&api_key=jqAGvNAwUIBu4fl9FSOjdm3V4F7hIglRzI6pdX9d"
  },
  "page" : {
    "size" : 20,
    "total_elements" : 20750,
    "total_pages" : 1038,
    "number" : 11
  },
  "near_earth_objects" : [ {
    "links" : {
      "self" : "https://api.nasa.gov/neo/rest/v1/neo/3143082?api_key=jqAGvNAwUIBu4fl9FSOjdm3V4F7hIglRzI6pdX9d"
    },
    "neo_reference_id" : "3143082",
    "name" : "(2002 VS85)",
    "designation" : "2002 VS85",
    "nasa_jpl_url" : "http://ssd.jpl.nasa.gov/sbdb.cgi?sstr=3143082",
    "absolute_magnitude_h" : 24.1,
    "estimated_diameter" : {
      "kilometers" : {
        "estimated_diameter_min" : 0.040230458,
        "estimated_diameter_max" : 0.0899580388
      },
      "meters" : {
        "estimated_diameter_min" : 40.2304579834,
        "estimated_diameter_max" : 89.9580388169
      },
      "miles" : {
        "estimated_diameter_min" : 0.0249980399,
        "estimated_diameter_max" : 0.0558973165
      },
      "feet" : {
        "estimated_diameter_min" : 131.9896957704,
        "estimated_diameter_max" : 295.1379320721
      }
    },
    "is_potentially_hazardous_asteroid" : false,
    "close_approach_data" : [ {
      "close_approach_date" : "2001-06-03",
      "epoch_date_close_approach" : 991551600000,
      "relative_velocity" : {
        "kilometers_per_second" : "29.9949795461",
        "kilometers_per_hour" : "107981.9263661353",
        "miles_per_hour" : "67095.76974678"
      },
      "miss_distance" : {
        "astronomical" : "0.3627849304",
        "lunar" : "141.123336792",
        "kilometers" : "54271852",
        "miles" : "33722964"
      },
      "orbiting_body" : "Earth"
    }, {
      "close_approach_date" : "2002-11-16",
      "epoch_date_close_approach" : 1037433600000,
      "relative_velocity" : {
        "kilometers_per_second" : "20.7025260674",
        "kilometers_per_hour" : "74529.0938426962",
        "miles_per_hour" : "46309.480560202"
      },
      "miss_distance" : {
        "astronomical" : "0.0321570842",
        "lunar" : "12.509106636",
        "kilometers" : "4810631.5",
        "miles" : "2989188"
      },
      "orbiting_body" : "Earth"
    }, {
      "close_approach_date" : "2110-06-04",
      "epoch_date_close_approach" : 4431308400000,
      "relative_velocity" : {
        "kilometers_per_second" : "29.7110542396",
        "kilometers_per_hour" : "106959.7952626968",
        "miles_per_hour" : "66460.6572286462"
      },
      "miss_distance" : {
        "astronomical" : "0.3534529365",
        "lunar" : "137.4931945801",
        "kilometers" : "52875808",
        "miles" : "32855504"
      },
      "orbiting_body" : "Earth"
    } ],
    "orbital_data" : {
      "orbit_id" : "8",
      "orbit_determination_date" : "2017-04-06 09:14:38",
      "first_observation_date" : "2002-11-12",
      "last_observation_date" : "2002-11-15",
      "data_arc_in_days" : 3,
      "observations_used" : 36,
      "orbit_uncertainty" : "8",
      "minimum_orbit_intersection" : ".0317314",
      "jupiter_tisserand_invariant" : "4.401",
      "epoch_osculation" : "2452592.5",
      "eccentricity" : ".5621184251920556",
      "semi_major_axis" : "1.44118875031801",
      "inclination" : "24.77567222945327",
      "ascending_node_longitude" : "230.437968721013",
      "orbital_period" : "631.9456402412645",
      "perihelion_distance" : ".6310699995847437",
      "perihelion_argument" : "275.7233279631975",
      "aphelion_distance" : "2.251307501051277",
      "perihelion_time" : "2452648.429264553900",
      "mean_anomaly" : "328.1388177126801",
      "mean_motion" : ".5696692517137376",
      "equinox" : "J2000",
      "orbit_class" : {
        "orbit_class_type" : "APO",
        "orbit_class_range" : "a (semi-major axis) > 1.0 AU; q (perihelion) < 1.017 AU",
        "orbit_class_description" : "Near-Earth asteroid orbits which cross the Earth’s orbit similar to that of 1862 Apollo"
      }
    },
    "is_sentry_object" : false
  }, {
    "links" : {
      "self" : "https://api.nasa.gov/neo/rest/v1/neo/3143085?api_key=jqAGvNAwUIBu4fl9FSOjdm3V4F7hIglRzI6pdX9d"
    },
    "neo_reference_id" : "3143085",
    "name" : "(2002 VY91)",
    "designation" : "2002 VY91",
    "nasa_jpl_url" : "http://ssd.jpl.nasa.gov/sbdb.cgi?sstr=3143085",
    "absolute_magnitude_h" : 26.3,
    "estimated_diameter" : {
      "kilometers" : {
        "estimated_diameter_min" : 0.0146067964,
        "estimated_diameter_max" : 0.0326617897
      },
      "meters" : {
        "estimated_diameter_min" : 14.6067964271,
        "estimated_diameter_max" : 32.6617897446
      },
      "miles" : {
        "estimated_diameter_min" : 0.0090762397,
        "estimated_diameter_max" : 0.020295089
      },
      "feet" : {
        "estimated_diameter_min" : 47.92256199,
        "estimated_diameter_max" : 107.1581062656
      }
    },
    "is_potentially_hazardous_asteroid" : false,
    "close_approach_data" : [ {
      "close_approach_date" : "2002-11-09",
      "epoch_date_close_approach" : 1036828800000,
      "relative_velocity" : {
        "kilometers_per_second" : "9.3107895592",
        "kilometers_per_hour" : "33518.8424129522",
        "miles_per_hour" : "20827.3051648702"
      },
      "miss_distance" : {
        "astronomical" : "0.0154369052",
        "lunar" : "6.0049562454",
        "kilometers" : "2309328.25",
        "miles" : "1434950"
      },
      "orbiting_body" : "Earth"
    } ],
    "orbital_data" : {
      "orbit_id" : "8",
      "orbit_determination_date" : "2017-04-06 09:14:37",
      "first_observation_date" : "2002-11-12",
      "last_observation_date" : "2002-12-04",
      "data_arc_in_days" : 22,
      "observations_used" : 20,
      "orbit_uncertainty" : "8",
      "minimum_orbit_intersection" : ".0064904",
      "jupiter_tisserand_invariant" : "3.322",
      "epoch_osculation" : "2452599.5",
      "eccentricity" : ".5811099619211073",
      "semi_major_axis" : "2.327427537521593",
      "inclination" : "3.400053843539483",
      "ascending_node_longitude" : "228.4282656148619",
      "orbital_period" : "1296.918482842819",
      "perihelion_distance" : ".9749362098182836",
      "perihelion_argument" : "155.5793539608231",
      "aphelion_distance" : "3.679918865224903",
      "perihelion_time" : "2452570.332084660787",
      "mean_anomaly" : "8.096460695895015",
      "mean_motion" : ".2775810544475295",
      "equinox" : "J2000",
      "orbit_class" : {
        "orbit_class_type" : "APO",
        "orbit_class_range" : "a (semi-major axis) > 1.0 AU; q (perihelion) < 1.017 AU",
        "orbit_class_description" : "Near-Earth asteroid orbits which cross the Earth’s orbit similar to that of 1862 Apollo"
      }
    },
    "is_sentry_object" : false
  } ]
}